{
  "type": "FeatureCollection",
  "features": [
    {
      "type": "Feature",
      "properties": {
        "norad_id": 64903,
        "name": "CO3D 1",
        "group": "resource",
        "lat": -44.767364650645526,
        "lon": 77.3265808850905,
        "alt_km": 607.2478210033278,
        "timestamp": "2025-12-18T23:35:48.705263+00:00",
        "meta_object_name": "CO3D 1",
        "meta_object_id": "2025-156E",
        "meta_epoch": "2025-12-17T11:36:30.873888",
        "meta_mean_motion": 15.26220326,
        "meta_eccentricity": 0.01994167,
        "meta_inclination": 97.9769,
        "meta_ra_of_asc_node": 67.73,
        "meta_arg_of_pericenter": 106.5315,
        "meta_mean_anomaly": 255.7931,
        "meta_ephemeris_type": 0,
        "meta_classification_type": "U",
        "meta_norad_cat_id": 64903,
        "meta_element_set_no": 999,
        "meta_rev_at_epoch": 2192,
        "meta_bstar": 7.9752951e-05,
        "meta_mean_motion_dot": 3.599e-05,
        "meta_mean_motion_ddot": 0,
        "tle_line1": "1 64903U 25156E   25351.48369067  .00003599  00000+0  79753-4 0  9990",
        "tle_line2": "2 64903  97.9769  67.7300 0199416 106.5315 255.7931 15.26220326 21920"
      },
      "geometry": {
        "type": "Point",
        "coordinates": [
          77.3265808850905,
          -44.767364650645526
        ]
      }
    },
    {
      "type": "Feature",
      "properties": {
        "norad_id": 66514,
        "name": "SENTINEL-6B",
        "group": "resource",
        "lat": 65.52494593104953,
        "lon": -108.19349925111887,
        "alt_km": 1334.261552849087,
        "timestamp": "2025-12-18T23:35:48.705273+00:00",
        "meta_object_name": "SENTINEL-6B",
        "meta_object_id": "2025-264A",
        "meta_epoch": "2025-12-12T06:01:21.428544",
        "meta_mean_motion": 12.81479578,
        "meta_eccentricity": 0.00078482,
        "meta_inclination": 66.0385,
        "meta_ra_of_asc_node": 163.4531,
        "meta_arg_of_pericenter": 270.1376,
        "meta_mean_anomaly": 89.874,
        "meta_ephemeris_type": 0,
        "meta_classification_type": "U",
        "meta_norad_cat_id": 66514,
        "meta_element_set_no": 999,
        "meta_rev_at_epoch": 322,
        "meta_bstar": 0.00018573353,
        "meta_mean_motion_dot": -1.8e-07,
        "meta_mean_motion_ddot": 0,
        "tle_line1": "1 66514U 25264A   25346.25094246 -.00000018  00000+0  18573-3 0  9999",
        "tle_line2": "2 66514  66.0385 163.4531 0007848 270.1376  89.8740 12.81479578  3223"
      },
      "geometry": {
        "type": "Point",
        "coordinates": [
          -108.19349925111887,
          65.52494593104953
        ]
      }
    }
  ]
}